[{"OBJECT_NAME":"ONEWEB-0138","OBJECT_ID":"2020-100AC","EPOCH":"2026-04-19T02:52:16.125312","MEAN_MOTION":13.12437572,"ECCENTRICITY":0.0001958,"INCLINATION":87.902,"RA_OF_ASC_NODE":2.399,"ARG_OF_PERICENTER":72.4279,"MEAN_ANOMALY":287.7063,"EPHEMERIS_TYPE":0,"CLASSIFICATION_TYPE":"U","NORAD_CAT_ID":47284,"ELEMENT_SET_NO":999,"REV_AT_EPOCH":25690,"BSTAR":-0.0013492,"MEAN_MOTION_DOT":-4.73e-06,"MEAN_MOTION_DDOT":0.0},{"OBJECT_NAME":"ONEWEB-0139","OBJECT_ID":"2020-100AD","EPOCH":"2026-04-19T03:51:01.209888","MEAN_MOTION":13.12441023,"ECCENTRICITY":0.000177,"INCLINATION":87.9004,"RA_OF_ASC_NODE":2.378,"ARG_OF_PERICENTER":77.6094,"MEAN_ANOMALY":282.5232,"EPHEMERIS_TYPE":0,"CLASSIFICATION_TYPE":"U","NORAD_CAT_ID":47285,"ELEMENT_SET_NO":999,"REV_AT_EPOCH":25698,"BSTAR":0.0012602,"MEAN_MOTION_DOT":4.66e-06,"MEAN_MOTION_DDOT":0.0},{"OBJECT_NAME":"ONEWEB-0140","OBJECT_ID":"2020-100AE","EPOCH":"2026-04-19T02:44:55.759200","MEAN_MOTION":13.12442739,"ECCENTRICITY":0.0001952,"INCLINATION":87.9007,"RA_OF_ASC_NODE":2.3764,"ARG_OF_PERICENTER":81.1091,"MEAN_ANOMALY":279.0258,"EPHEMERIS_TYPE":0,"CLASSIFICATION_TYPE":"U","NORAD_CAT_ID":47286,"ELEMENT_SET_NO":999,"REV_AT_EPOCH":25694,"BSTAR":-0.0009157400000000001,"MEAN_MOTION_DOT":-3.17e-06,"MEAN_MOTION_DDOT":0.0},{"OBJECT_NAME":"ONEWEB-0141","OBJECT_ID":"2020-100AF","EPOCH":"2026-04-19T03:50:36.984192","MEAN_MOTION":13.12441471,"ECCENTRICITY":0.0001492,"INCLINATION":87.9008,"RA_OF_ASC_NODE":2.3733,"ARG_OF_PERICENTER":84.1232,"MEAN_ANOMALY":276.0067,"EPHEMERIS_TYPE":0,"CLASSIFICATION_TYPE":"U","NORAD_CAT_ID":47287,"ELEMENT_SET_NO":999,"REV_AT_EPOCH":25693,"BSTAR":0.0010601,"MEAN_MOTION_DOT":3.94e-06,"MEAN_MOTION_DDOT":0.0},{"OBJECT_NAME":"ONEWEB-0142","OBJECT_ID":"2020-100AG","EPOCH":"2026-04-19T03:33:56.018592","MEAN_MOTION":13.12442948,"ECCENTRICITY":0.0001416,"INCLINATION":87.9001,"RA_OF_ASC_NODE":2.3997,"ARG_OF_PERICENTER":71.6587,"MEAN_ANOMALY":288.4696,"EPHEMERIS_TYPE":0,"CLASSIFICATION_TYPE":"U","NORAD_CAT_ID":47288,"ELEMENT_SET_NO":999,"REV_AT_EPOCH":25692,"BSTAR":0.0014393000000000001,"MEAN_MOTION_DOT":5.31e-06,"MEAN_MOTION_DDOT":0.0},{"OBJECT_NAME":"ONEWEB-0143","OBJECT_ID":"2020-100AH","EPOCH":"2026-04-19T03:48:22.560480","MEAN_MOTION":13.12441754,"ECCENTRICITY":0.0001749,"INCLINATION":87.9002,"RA_OF_ASC_NODE":2.3942,"ARG_OF_PERICENTER":79.8208,"MEAN_ANOMALY":280.3118,"EPHEMERIS_TYPE":0,"CLASSIFICATION_TYPE":"U","NORAD_CAT_ID":47289,"ELEMENT_SET_NO":999,"REV_AT_EPOCH":25690,"BSTAR":0.0011597,"MEAN_MOTION_DOT":4.3e-06,"MEAN_MOTION_DDOT":0.0},{"OBJECT_NAME":"ONEWEB-0144","OBJECT_ID":"2020-100AJ","EPOCH":"2026-04-19T03:06:52.048512","MEAN_MOTION":13.12445311,"ECCENTRICITY":0.0001698,"INCLINATION":87.9008,"RA_OF_ASC_NODE":2.3712,"ARG_OF_PERICENTER":68.1975,"MEAN_ANOMALY":291.9334,"EPHEMERIS_TYPE":0,"CLASSIFICATION_TYPE":"U","NORAD_CAT_ID":47290,"ELEMENT_SET_NO":999,"REV_AT_EPOCH":25682,"BSTAR":-0.00015407000000000002,"MEAN_MOTION_DOT":-4.3e-07,"MEAN_MOTION_DDOT":0.0},{"OBJECT_NAME":"ONEWEB-0145","OBJECT_ID":"2020-100AK","EPOCH":"2026-04-19T02:25:25.224960","MEAN_MOTION":13.12440813,"ECCENTRICITY":0.0001746,"INCLINATION":87.9,"RA_OF_ASC_NODE":2.4112,"ARG_OF_PERICENTER":76.774,"MEAN_ANOMALY":283.3584,"EPHEMERIS_TYPE":0,"CLASSIFICATION_TYPE":"U","NORAD_CAT_ID":47291,"ELEMENT_SET_NO":999,"REV_AT_EPOCH":25701,"BSTAR":-0.00048584,"MEAN_MOTION_DOT":-1.62e-06,"MEAN_MOTION_DDOT":0.0},{"OBJECT_NAME":"ONEWEB-0146","OBJECT_ID":"2020-100AL","EPOCH":"2026-04-19T04:10:19.322400","MEAN_MOTION":13.12441376,"ECCENTRICITY":0.0002013,"INCLINATION":87.9006,"RA_OF_ASC_NODE":2.3844,"ARG_OF_PERICENTER":87.0525,"MEAN_ANOMALY":273.0834,"EPHEMERIS_TYPE":0,"CLASSIFICATION_TYPE":"U","NORAD_CAT_ID":47292,"ELEMENT_SET_NO":999,"REV_AT_EPOCH":25693,"BSTAR":-0.00023749,"MEAN_MOTION_DOT":-7.3e-07,"MEAN_MOTION_DDOT":0.0},{"OBJECT_NAME":"ONEWEB-0147","OBJECT_ID":"2020-100AM","EPOCH":"2026-04-19T03:21:31.602240","MEAN_MOTION":13.12443046,"ECCENTRICITY":0.0001919,"INCLINATION":87.9006,"RA_OF_ASC_NODE":2.3718,"ARG_OF_PERICENTER":77.33,"MEAN_ANOMALY":282.8043,"EPHEMERIS_TYPE":0,"CLASSIFICATION_TYPE":"U","NORAD_CAT_ID":47293,"ELEMENT_SET_NO":999,"REV_AT_EPOCH":25682,"BSTAR":0.0007892099999999999,"MEAN_MOTION_DOT":2.97e-06,"MEAN_MOTION_DDOT":0.0},{"OBJECT_NAME":"ONEWEB-0115","OBJECT_ID":"2021-025A","EPOCH":"2026-04-19T01:29:08.697408","MEAN_MOTION":13.13470584,"ECCENTRICITY":0.0001785,"INCLINATION":87.8983,"RA_OF_ASC_NODE":331.9976,"ARG_OF_PERICENTER":84.9682,"MEAN_ANOMALY":275.1651,"EPHEMERIS_TYPE":0,"CLASSIFICATION_TYPE":"U","NORAD_CAT_ID":48042,"ELEMENT_SET_NO":999,"REV_AT_EPOCH":24583,"BSTAR":0.0012837999999999999,"MEAN_MOTION_DOT":4.82e-06,"MEAN_MOTION_DDOT":0.0},{"OBJECT_NAME":"ONEWEB-0152","OBJECT_ID":"2021-025B","EPOCH":"2026-04-19T01:48:38.834208","MEAN_MOTION":13.13469017,"ECCENTRICITY":0.0001823,"INCLINATION":87.8979,"RA_OF_ASC_NODE":331.9939,"ARG_OF_PERICENTER":85.7774,"MEAN_ANOMALY":274.3564,"EPHEMERIS_TYPE":0,"CLASSIFICATION_TYPE":"U","NORAD_CAT_ID":48043,"ELEMENT_SET_NO":999,"REV_AT_EPOCH":24579,"BSTAR":0.00092325,"MEAN_MOTION_DOT":3.5e-06,"MEAN_MOTION_DDOT":0.0},{"OBJECT_NAME":"ONEWEB-0153","OBJECT_ID":"2021-025C","EPOCH":"2026-04-19T01:16:57.268704","MEAN_MOTION":13.13470186,"ECCENTRICITY":0.0001667,"INCLINATION":87.8974,"RA_OF_ASC_NODE":332.0026,"ARG_OF_PERICENTER":82.114,"MEAN_ANOMALY":278.0178,"EPHEMERIS_TYPE":0,"CLASSIFICATION_TYPE":"U","NORAD_CAT_ID":48044,"ELEMENT_SET_NO":999,"REV_AT_EPOCH":24578,"BSTAR":0.00058373,"MEAN_MOTION_DOT":2.26e-06,"MEAN_MOTION_DDOT":0.0},{"OBJECT_NAME":"ONEWEB-0154","OBJECT_ID":"2021-025D","EPOCH":"2026-04-19T03:01:44.969088","MEAN_MOTION":13.13469222,"ECCENTRICITY":0.0001834,"INCLINATION":87.8974,"RA_OF_ASC_NODE":331.9857,"ARG_OF_PERICENTER":82.283,"MEAN_ANOMALY":277.8508,"EPHEMERIS_TYPE":0,"CLASSIFICATION_TYPE":"U","NORAD_CAT_ID":48045,"ELEMENT_SET_NO":999,"REV_AT_EPOCH":24575,"BSTAR":0.00023048,"MEAN_MOTION_DOT":9.7e-07,"MEAN_MOTION_DDOT":0.0},{"OBJECT_NAME":"ONEWEB-0116","OBJECT_ID":"2021-025E","EPOCH":"2026-04-19T02:08:08.468160","MEAN_MOTION":13.13468514,"ECCENTRICITY":0.0001852,"INCLINATION":87.8987,"RA_OF_ASC_NODE":331.9846,"ARG_OF_PERICENTER":86.0312,"MEAN_ANOMALY":274.1029,"EPHEMERIS_TYPE":0,"CLASSIFICATION_TYPE":"U","NORAD_CAT_ID":48046,"ELEMENT_SET_NO":999,"REV_AT_EPOCH":24589,"BSTAR":2.7685e-05,"MEAN_MOTION_DOT":2.3e-07,"MEAN_MOTION_DDOT":0.0},{"OBJECT_NAME":"ONEWEB-0150","OBJECT_ID":"2021-025F","EPOCH":"2026-04-19T01:34:01.204608","MEAN_MOTION":13.13470191,"ECCENTRICITY":0.0001563,"INCLINATION":87.8986,"RA_OF_ASC_NODE":331.9873,"ARG_OF_PERICENTER":87.938,"MEAN_ANOMALY":272.1929,"EPHEMERIS_TYPE":0,"CLASSIFICATION_TYPE":"U","NORAD_CAT_ID":48047,"ELEMENT_SET_NO":999,"REV_AT_EPOCH":24578,"BSTAR":0.0013003000000000001,"MEAN_MOTION_DOT":4.88e-06,"MEAN_MOTION_DDOT":0.0}]