ONEWEB-0138             
1 47284U 20100AC  26109.11963108 -.00000473  00000+0 -13492-2 0  9991
2 47284  87.9020   2.3990 0001958  72.4279 287.7063 13.12437572256900
ONEWEB-0139             
1 47285U 20100AD  26109.16043067  .00000466  00000+0  12602-2 0  9992
2 47285  87.9004   2.3780 0001770  77.6094 282.5232 13.12441023256989
ONEWEB-0140             
1 47286U 20100AE  26109.11453425 -.00000317  00000+0 -91574-3 0  9994
2 47286  87.9007   2.3764 0001952  81.1091 279.0258 13.12442739256944
ONEWEB-0141             
1 47287U 20100AF  26109.16015028  .00000394  00000+0  10601-2 0  9997
2 47287  87.9008   2.3733 0001492  84.1232 276.0067 13.12441471256937
ONEWEB-0142             
1 47288U 20100AG  26109.14856503  .00000531  00000+0  14393-2 0  9992
2 47288  87.9001   2.3997 0001416  71.6587 288.4696 13.12442948256927
ONEWEB-0143             
1 47289U 20100AH  26109.15859445  .00000430  00000+0  11597-2 0  9993
2 47289  87.9002   2.3942 0001749  79.8208 280.3118 13.12441754256900
ONEWEB-0144             
1 47290U 20100AJ  26109.12976908 -.00000043  00000+0 -15407-3 0  9993
2 47290  87.9008   2.3712 0001698  68.1975 291.9334 13.12445311256820
ONEWEB-0145             
1 47291U 20100AK  26109.10098640 -.00000162  00000+0 -48584-3 0  9994
2 47291  87.9000   2.4112 0001746  76.7740 283.3584 13.12440813257013
ONEWEB-0146             
1 47292U 20100AL  26109.17383475 -.00000073  00000+0 -23749-3 0  9992
2 47292  87.9006   2.3844 0002013  87.0525 273.0834 13.12441376256934
ONEWEB-0147             
1 47293U 20100AM  26109.13994910  .00000297  00000+0  78921-3 0  9999
2 47293  87.9006   2.3718 0001919  77.3300 282.8043 13.12443046256826
ONEWEB-0115             
1 48042U 21025A   26109.06190622  .00000482  00000+0  12838-2 0  9999
2 48042  87.8983 331.9976 0001785  84.9682 275.1651 13.13470584245834
ONEWEB-0152             
1 48043U 21025B   26109.07544947  .00000350  00000+0  92325-3 0  9998
2 48043  87.8979 331.9939 0001823  85.7774 274.3564 13.13469017245791
ONEWEB-0153             
1 48044U 21025C   26109.05344061  .00000226  00000+0  58373-3 0  9999
2 48044  87.8974 332.0026 0001667  82.1140 278.0178 13.13470186245780
ONEWEB-0154             
1 48045U 21025D   26109.12621492  .00000097  00000+0  23048-3 0  9991
2 48045  87.8974 331.9857 0001834  82.2830 277.8508 13.13469222245754
ONEWEB-0116             
1 48046U 21025E   26109.08898690  .00000023  00000+0  27685-4 0  9994
2 48046  87.8987 331.9846 0001852  86.0312 274.1029 13.13468514245890
ONEWEB-0150             
1 48047U 21025F   26109.06529172  .00000488  00000+0  13003-2 0  9991
2 48047  87.8986 331.9873 0001563  87.9380 272.1929 13.13470191245783
